LEMUR-2-ROUNDTRIPPER    
1 62711U 25009DG  26196.76816895  .00004569  00000+0  33300-3 0  9992
2 62711  97.7252 279.4125 0004479  62.8662 297.3020 15.04237419 81924
LEMUR-2-MYNAMEISJEFF    
1 62712U 25009DH  26196.76665947  .00004503  00000+0  32837-3 0  9995
2 62712  97.7301 279.8094 0004115  96.2499 263.9195 15.04228449 81920
LEMUR-2-LEIA-PHILIP     
1 63246U 25052AN  26196.27028868  .00000141  00000+0  17093-4 0  9999
2 63246  97.6805  87.7451 0005095 119.1718 241.0014 14.97391480 72879
LEMUR-2-LIA-MARTIN      
1 63248U 25052AQ  26196.26481194  .00002027  00000+0  17643-3 0  9990
2 63248  97.6869  88.2585 0005299  89.7289 270.4540 14.98030415 72886
LEMUR-2-DELOITTE-1      
1 63259U 25052BB  26196.57931293  .00002441  00000+0  21287-3 0  9995
2 63259  97.6881  88.8983 0002572  64.8549 295.2940 14.97784138 72947
LEMUR-2-EMERSONROSE     
1 63261U 25052BD  26196.52636810  .00002736  00000+0  22890-3 0  9998
2 63261  97.6885  89.4601 0002709  60.0626 300.0865 14.99293057 72986
LEMUR-2-MARACHE-FRAN    
1 63262U 25052BE  26196.21538038  .00001678  00000+0  13855-3 0  9993
2 63262  97.6837  89.5210 0005176 252.2220 107.8439 15.00315354 72963
LEMUR-2-THEFALCONER     
1 63264U 25052BG  26196.27574090  .00001069  00000+0  96508-4 0  9990
2 63264  97.6830  88.1900 0000294 296.3949  63.7243 14.97563100 72896
LEMUR-2-UNTITLED-SC     
1 63351U 25061A   26196.91310462  .00001751  00000+0  10072-3 0  9998
2 63351  97.5657 172.0714 0019260 160.7260 199.4704 15.13648334 71933
LEMUR-2-ESPERANZA       
1 63352U 25061B   26196.88838930  .00001751  00000+0  10045-3 0  9990
2 63352  97.5664 172.1471 0018885 159.9774 200.2202 15.13754973 71936
LEMUR-2-KREMPEL-BRO2    
1 63353U 25061C   26196.90716517  .00001626  00000+0  92420-4 0  9999
2 63353  97.5706 172.7357 0020060 152.8912 207.3371 15.14181271 71950
LEMUR-2-THERMORAPTOR    
1 63354U 25061D   26196.88768537  .00002072  00000+0  11648-3 0  9994
2 63354  97.5712 172.7977 0019789 151.8094 208.4213 15.14264291 71953
LEMUR-2-NEUROSPICY      
1 63355U 25061E   26196.92321868  .00001688  00000+0  95343-4 0  9999
2 63355  97.5639 172.4370 0017581 154.5524 205.6577 15.14383522 71964
LEMUR-2-TILLINFINITY    
1 63356U 25061F   26196.88136137  .00002199  00000+0  12104-3 0  9999
2 63356  97.5625 172.7060 0019136 143.6125 216.6413 15.14967400 71989
LEMUR-2-KREMPEL-BRO1    
1 63357U 25061G   26196.92455597  .00001722  00000+0  96037-4 0  9998
2 63357  97.5626 172.6569 0019754 144.8713 215.3826 15.14774664 71988
LEMUR-2-LANGER2SPACE    
1 63358U 25061H   26196.89075938  .00002014  00000+0  11277-3 0  9999
2 63358  97.5633 172.4259 0017462 152.9152 207.2994 15.14467754 71965
LEMUR-2-BALTO           
1 63395U 25052BH  26196.93335371  .00002472  00000+0  20164-3 0  9998
2 63395  97.6928  90.2192 0005087 324.4580  35.6304 15.00367882 73076
LEMUR-2-KRISH           
1 64561U 25135AK  26196.82904968  .00001773  00000+0  16140-3 0  9990
2 64561  97.7774 311.5152 0001279  96.4865 263.6502 14.96451015 58205
LEMUR-2-HUBBLE-4        
1 64565U 25135AP  26196.87807392  .00000792  00000+0  80239-4 0  9993
2 64565  97.7720 310.4520 0002725 160.3081 199.8244 14.93687144 58153
LEMUR-2-SEJONG-2        
1 64586U 25135BL  26196.91673510  .00002107  00000+0  18859-3 0  9994
2 64586  97.7709 311.7477 0004006 215.3704 144.7252 14.96914863 58247
LEMUR-2-HUBBLE-5        
1 64840U 25135BT  26196.88666765  .00000584  00000+0  59795-4 0  9999
2 64840  97.7741 311.1302 0004355 232.4471 127.6353 14.94214757 58194
LEMUR-2-KARENDARRELL    
1 64841U 25135BU  26196.79663076  .00004305  00000+0  34587-3 0  9998
2 64841  97.7719 312.9676 0012499 102.9205 257.3415 15.00505264 58304
LEMUR-2-LUCILLE-ROSE    
1 65403U 25135BV  26196.90346072  .00003315  00000+0  26742-3 0  9994
2 65403  97.7712 313.1096 0014989 186.8472 173.2549 15.00493417 52948
LEMUR-2-AFFIE-WAUWIE    
1 66295U 25248C   26196.36935946  .00012792  00000+0  46577-3 0  9990
2 66295  45.3887 322.1687 0008766 251.4181 108.5756 15.28256430 38901
OTTER SDM               
1 66678U 25276N   26196.16317339  .00003557  00000+0  16803-3 0  9992
2 66678  97.4206 269.1787 0004295 254.0411 106.0351 15.20056680 34668
LEMUR-2-STAS-GORBUK     
1 66686U 25276W   26196.18459675  .00002841  00000+0  13639-3 0  9992
2 66686  97.4240 269.2517 0003613 248.2139 111.8711 15.19658337 34661
LEMUR-2-TEODOR          
1 66768U 25276DG  26196.72957459  .00003124  00000+0  14257-3 0  9998
2 66768  97.4144 270.0602 0002203  87.3705 272.7783 15.21341179 34780
LEMUR-2-LAILA           
1 66776U 25276DQ  26196.76506091  .00003082  00000+0  13978-3 0  9995
2 66776  97.4167 270.2341 0002934  93.5101 266.6471 15.21566764 34792
LEMUR-2-CELIJO-SB-PK    
1 66781U 25276DW  26196.18488121  .00002627  00000+0  21423-3 0  9998
2 66781  97.5197 266.0383 0007030  64.1114 296.0834 15.00282855 26829
